NORAD_CAT_ID,OBJECT_NAME,OBJECT_TYPE,EPOCH,MEAN_MOTION,ECCENTRICITY,INCLINATION,RA_OF_ASC_NODE,ARG_OF_PERICENTER,MEAN_ANOMALY,BSTAR,MEAN_MOTION_DOT,MEAN_MOTION_DDOT,TLE_LINE0,TLE_LINE1,TLE_LINE2,SEMIMAJOR_AXIS,PERIOD,APOGEE,PERIGEE,DECAYED
50842.0,STARLINK-3302,PAYLOAD,2023-05-09 05:04:11,15.08839734,7.83e-05,53.216,147.5636,79.3517,280.7563,3.3937e-05,2.52e-06,0.0,0 STARLINK-3302,1 50842U 22001AR  23129.21124314  .00000252  00000-0  33937-4 0  9997,2 50842  53.2160 147.5636 0000783  79.3517 280.7563 15.08839734 75225,6917.881,95.438,540.288,539.205,0.0
50842.0,STARLINK-3302,PAYLOAD,2023-05-09 06:39:34,15.08840317,7.88e-05,53.2159,147.2662,79.0305,281.0776,3.8207e-05,3.2e-06,0.0,0 STARLINK-3302,1 50842U 22001AR  23129.27748262  .00000320  00000-0  38207-4 0  9998,2 50842  53.2159 147.2662 0000788  79.0305 281.0776 15.08840317 73942,6917.879,95.438,540.29,539.199,0.0
50842.0,STARLINK-3302,PAYLOAD,2023-05-10 09:41:08,15.08835103,8.39e-05,53.2157,142.2111,78.8558,281.2529,8.5657e-05,1.076e-05,0.0,0 STARLINK-3302,1 50842U 22001AR  23130.40356772  .00001076  00000-0  85657-4 0  9996,2 50842  53.2157 142.2111 0000839  78.8558 281.2529 15.08835103 74113,6917.895,95.438,540.341,539.18,0.0
50842.0,STARLINK-3302,PAYLOAD,2023-05-10 17:38:03,15.08836967,8.58e-05,53.2157,140.724,78.4991,281.6097,6.2947e-05,7.14e-06,0.0,0 STARLINK-3302,1 50842U 22001AR  23130.73476805  .00000714  00000-0  62947-4 0  9997,2 50842  53.2157 140.7240 0000858  78.4991 281.6097 15.08836967 74165,6917.89,95.438,540.348,539.161,0.0
50842.0,STARLINK-3302,PAYLOAD,2023-05-11 07:56:32,15.0883908,8.75e-05,53.2157,138.0479,84.2445,275.8647,5.1896e-05,5.38e-06,0.0,0 STARLINK-3302,1 50842U 22001AR  23131.33092788  .00000538  00000-0  51896-4 0  9993,2 50842  53.2157 138.0479 0000875  84.2445 275.8647 15.08839080 74252,6917.883,95.438,540.354,539.143,0.0
50842.0,STARLINK-3302,PAYLOAD,2023-05-11 17:28:51,15.08839022,8.81e-05,53.2158,136.2644,85.6117,274.4976,4.9867e-05,5.06e-06,0.0,0 STARLINK-3302,1 50842U 22001AR  23131.72836828  .00000506  00000-0  49867-4 0  9997,2 50842  53.2158 136.2644 0000881  85.6117 274.4976 15.08839022 75601,6917.883,95.438,540.358,539.139,0.0
50842.0,STARLINK-3302,PAYLOAD,2023-05-12 04:36:33,15.08837908,8.86e-05,53.2158,134.1825,85.4671,274.6422,6.0188e-05,6.7e-06,0.0,0 STARLINK-3302,1 50842U 22001AR  23132.19204956  .00000670  00000-0  60188-4 0  9991,2 50842  53.2158 134.1825 0000886  85.4671 274.6422 15.08837908 74380,6917.887,95.438,540.365,539.139,0.0
50842.0,STARLINK-3302,PAYLOAD,2023-05-12 17:19:38,15.08837213,9.05e-05,53.2158,131.8027,83.0471,277.0624,4.1924e-05,3.8e-06,0.0,0 STARLINK-3302,1 50842U 22001AR  23132.72197116  .00000380  00000-0  41924-4 0  9994,2 50842  53.2158 131.8027 0000905  83.0471 277.0624 15.08837213 74461,6917.889,95.438,540.38,539.128,0.0
50842.0,STARLINK-3302,PAYLOAD,2023-05-12 22:05:47,15.08836997,9.01e-05,53.2157,130.9106,82.9099,277.1996,5.2184e-05,5.43e-06,0.0,0 STARLINK-3302,1 50842U 22001AR  23132.92069143  .00000543  00000-0  52184-4 0  9995,2 50842  53.2157 130.9106 0000901  82.9099 277.1996 15.08836997 75785,6917.89,95.438,540.378,539.131,0.0
50842.0,STARLINK-3302,PAYLOAD,2023-05-13 06:02:43,15.0883816,9e-05,53.2158,129.4238,82.8975,277.2119,5.7168e-05,6.22e-06,0.0,0 STARLINK-3302,1 50842U 22001AR  23133.25189108  .00000622  00000-0  57168-4 0  9991,2 50842  53.2158 129.4238 0000900  82.8975 277.2119 15.08838160 74541,6917.886,95.438,540.374,539.128,0.0
50842.0,STARLINK-3302,PAYLOAD,2023-05-13 17:10:25,15.08838384,9.02e-05,53.2159,127.3415,83.5573,276.5522,4.2681e-05,3.92e-06,0.0,0 STARLINK-3302,1 50842U 22001AR  23133.71557116  .00000392  00000-0  42681-4 0  9998,2 50842  53.2159 127.3415 0000902  83.5573 276.5522 15.08838384 74616,6917.885,95.438,540.374,539.126,0.0
50842.0,STARLINK-3302,PAYLOAD,2023-05-14 05:53:30,15.08838524,9.18e-05,53.2161,124.9627,83.76,276.3496,4.5685e-05,4.39e-06,0.0,0 STARLINK-3302,1 50842U 22001AR  23134.24549194  .00000439  00000-0  45685-4 0  9993,2 50842  53.2161 124.9627 0000918  83.7600 276.3496 15.08838524 75982,6917.885,95.438,540.385,539.115,0.0
50842.0,STARLINK-3302,PAYLOAD,2023-05-15 05:44:17,15.08844606,9.35e-05,53.2162,120.5021,82.6095,277.5003,9.1428e-05,1.168e-05,0.0,0 STARLINK-3302,1 50842U 22001AR  23135.23908592  .00001168  00000-0  91428-4 0  9990,2 50842  53.2162 120.5021 0000935  82.6095 277.5003 15.08844606 76131,6917.866,95.437,540.378,539.084,0.0
50842.0,STARLINK-3302,PAYLOAD,2023-05-16 05:35:04,15.08838126,9.72e-05,53.2161,116.0409,82.0406,278.0697,2.707e-05,1.43e-06,0.0,0 STARLINK-3302,1 50842U 22001AR  23136.23269277  .00000143  00000-0  27070-4 0  9995,2 50842  53.2161 116.0409 0000972  82.0406 278.0697 15.08838126 76282,6917.886,95.438,540.424,539.079,0.0
50842.0,STARLINK-3302,PAYLOAD,2023-05-16 08:45:51,15.08837292,9.82e-05,53.2163,115.4467,81.9672,278.1431,1.9347e-05,2e-07,0.0,0 STARLINK-3302,1 50842U 22001AR  23136.36517369  .00000020  00000-0  19347-4 0  9999,2 50842  53.2163 115.4467 0000982  81.9672 278.1431 15.08837292 75015,6917.889,95.438,540.433,539.074,0.0
50842.0,STARLINK-3302,PAYLOAD,2023-05-16 19:53:33,15.08838806,9.76e-05,53.2165,113.365,73.6198,286.4902,-4.9985e-05,-1.083e-05,0.0,0 STARLINK-3302,1 50842U 22001AR  23136.82885635 -.00001083  00000-0 -49985-4 0  9997,2 50842  53.2165 113.3650 0000976  73.6198 286.4902 15.08838806 75086,6917.884,95.438,540.424,539.074,0.0
50842.0,STARLINK-3302,PAYLOAD,2023-05-17 08:36:37,15.08841416,0.0001017,53.2163,110.9864,79.6272,280.4835,-1.2013e-05,-4.79e-06,0.0,0 STARLINK-3302,1 50842U 22001AR  23137.35877292 -.00000479  00000-0 -12013-4 0  9996,2 50842  53.2163 110.9864 0001017  79.6272 280.4835 15.08841416 76452,6917.876,95.437,540.445,539.038,0.0
50842.0,STARLINK-3302,PAYLOAD,2023-05-18 06:52:02,15.08838097,0.0001032,53.2164,106.8244,90.3007,269.8104,6.114e-05,6.85e-06,0.0,0 STARLINK-3302,1 50842U 22001AR  23138.28613457  .00000685  00000-0  61140-4 0  9992,2 50842  53.2164 106.8244 0001032  90.3007 269.8104 15.08838097 75306,6917.886,95.438,540.465,539.037,0.0
50842.0,STARLINK-3302,PAYLOAD,2023-05-19 03:32:03,15.08836717,0.000105,53.2167,102.9589,98.308,261.8032,2.5015e-05,1.1e-06,0.0,0 STARLINK-3302,1 50842U 22001AR  23139.14725843  .00000110  00000-0  25015-4 0  9995,2 50842  53.2167 102.9589 0001050  98.3080 261.8032 15.08836717 76723,6917.89,95.438,540.482,539.029,0.0
50842.0,STARLINK-3302,PAYLOAD,2023-05-19 06:42:49,15.08838371,0.0001043,53.2166,102.364,95.0773,265.0338,3.6835e-05,2.98e-06,0.0,0 STARLINK-3302,1 50842U 22001AR  23139.27973725  .00000298  00000-0  36835-4 0  9992,2 50842  53.2166 102.3640 0001043  95.0773 265.0338 15.08838371 75451,6917.885,95.438,540.472,539.029,0.0
50842.0,STARLINK-3302,PAYLOAD,2023-05-20 04:58:12,15.08845077,0.0001127,53.2168,98.2015,89.7493,270.3628,7.133e-05,8.48e-06,0.0,0 STARLINK-3302,1 50842U 22001AR  23140.20709339  .00000848  00000-0  71330-4 0  9995,2 50842  53.2168  98.2015 0001127  89.7493 270.3628 15.08845077 76884,6917.865,95.437,540.51,538.95,0.0
50842.0,STARLINK-3302,PAYLOAD,2023-05-20 06:33:35,15.08847966,0.000113,53.2168,97.904,89.1061,271.006,9.3712e-05,1.204e-05,0.0,0 STARLINK-3302,1 50842U 22001AR  23140.27333070  .00001204  00000-0  93712-4 0  9992,2 50842  53.2168  97.9040 0001130  89.1061 271.0060 15.08847966 75603,6917.856,95.437,540.503,538.939,0.0
50842.0,STARLINK-3302,PAYLOAD,2023-05-21 06:24:22,15.08851184,0.0001184,53.2173,93.4397,101.1145,258.998,0.00012338,1.677e-05,0.0,0 STARLINK-3302,1 50842U 22001AR  23141.26692372  .00001677  00000-0  12338-3 0  9993,2 50842  53.2173  93.4397 0001184 101.1145 258.9980 15.08851184 77044,6917.846,95.437,540.53,538.892,0.0
50842.0,STARLINK-3302,PAYLOAD,2023-05-21 20:42:52,15.08833548,8.78e-05,53.218,90.7662,91.4072,268.7021,-0.00010437,-1.948e-05,0.0,0 STARLINK-3302,1 50842U 22001AR  23141.86310341 -.00001948  00000-0 -10437-3 0  9993,2 50842  53.2180  90.7662 0000878  91.4072 268.7021 15.08833548 75841,6917.9,95.438,540.373,539.158,0.0
50842.0,STARLINK-3302,PAYLOAD,2023-05-22 03:04:24,15.088359,0.0001093,53.2178,89.5764,101.462,258.6495,-7.7843e-05,-1.526e-05,0.0,0 STARLINK-3302,1 50842U 22001AR  23142.12806143 -.00001526  00000-0 -77843-4 0  9990,2 50842  53.2178  89.5764 0001093 101.4620 258.6495 15.08835900 77173,6917.893,95.438,540.514,539.002,0.0
50842.0,STARLINK-3302,PAYLOAD,2023-05-22 06:15:10,15.08837246,0.0001184,53.2176,88.9809,102.93,257.1825,-5.9658e-05,-1.237e-05,0.0,0 STARLINK-3302,1 50842U 22001AR  23142.26054041 -.00001237  00000-0 -59658-4 0  9990,2 50842  53.2176  88.9809 0001184 102.9300 257.1825 15.08837246 75901,6917.889,95.438,540.573,538.935,0.0
50842.0,STARLINK-3302,PAYLOAD,2023-05-23 01:19:47,15.08848283,0.0001098,53.2174,85.4131,108.7149,251.3962,-4.549e-05,-1.012e-05,0.0,0 STARLINK-3302,1 50842U 22001AR  23143.05541350 -.00001012  00000-0 -45490-4 0  9992,2 50842  53.2174  85.4131 0001098 108.7149 251.3962 15.08848283 77316,6917.855,95.437,540.48,538.96,0.0
50842.0,STARLINK-3302,PAYLOAD,2023-05-23 20:24:26,15.08831456,0.0001119,53.2175,81.845,102.9088,257.2029,8.6528e-05,1.089e-05,0.0,0 STARLINK-3302,1 50842U 22001AR  23143.85030180  .00001089  00000-0  86528-4 0  9993,2 50842  53.2175  81.8450 0001119 102.9088 257.2029 15.08831456 76146,6917.907,95.438,540.546,538.997,0.0
50842.0,STARLINK-3302,PAYLOAD,2023-05-24 02:45:58,15.08830987,0.0001082,53.2174,80.657,97.4584,262.6531,8.2409e-05,1.024e-05,0.0,0 STARLINK-3302,1 50842U 22001AR  23144.11526399  .00001024  00000-0  82409-4 0  9998,2 50842  53.2174  80.6570 0001082  97.4584 262.6531 15.08830987 77476,6917.908,95.438,540.521,539.024,0.0
50842.0,STARLINK-3302,PAYLOAD,2023-05-24 05:56:45,15.08832746,0.0001046,53.2173,80.062,96.409,263.7021,9.2042e-05,1.177e-05,0.0,0 STARLINK-3302,1 50842U 22001AR  23144.24774357  .00001177  00000-0  92042-4 0  9994,2 50842  53.2173  80.0620 0001046  96.4090 263.7021 15.08832746 76207,6917.903,95.438,540.491,539.044,0.0
